STARLINK-36565          
1 67544U 26014N   26034.50002314 -.01465988  00000+0 -76696-2 0  9997
2 67544  97.2790 277.6743 0001436  80.1599  26.9380 15.83361148  3195
STARLINK-36583          
1 67545U 26014P   26034.50002314 -.01469325  00000+0 -76189-2 0  9994
2 67545  97.2789 277.6766 0001760  80.1498  32.4590 15.83551051  3196
STARLINK-36580          
1 67546U 26014Q   26034.50002314 -.01463720  00000+0 -74993-2 0  9999
2 67546  97.2786 277.6791 0001783  88.6975  30.9217 15.83792734  3194
STARLINK-36584          
1 67547U 26014R   26034.50002314 -.01417964  00000+0 -73441-2 0  9996
2 67547  97.2784 277.6809 0001675  72.8955  51.6535 15.83946448  3192
STARLINK-36586          
1 67548U 26014S   26034.50002314 -.01426931  00000+0 -73098-2 0  9999
2 67548  97.2792 277.6847 0001659  76.9741  54.4744 15.84196208  3199
STARLINK-36564          
1 67549U 26014T   26034.50002314 -.01428100  00000+0 -72443-2 0  9993
2 67549  97.2793 277.6873 0001689  74.5106  62.9127 15.84402770  3139
STARLINK-36563          
1 67550U 26014U   26034.50002314 -.01422065  00000+0 -71402-2 0  9993
2 67550  97.2782 277.6886 0001559  77.6392  65.6935 15.84604111  3196
STARLINK-36566          
1 67551U 26014V   26034.50002314 -.01414118  00000+0 -70323-2 0  9995
2 67551  97.2778 277.6906 0001647  77.1119  71.5905 15.84785092  3196
STARLINK-36567          
1 67552U 26014W   26034.50002314 -.01416336  00000+0 -69816-2 0  9995
2 67552  97.2776 277.6929 0001575  78.1693  75.9510 15.84973283  3199
STARLINK-36569          
1 67553U 26014X   26034.50002314 -.01414116  00000+0 -68849-2 0  9995
2 67553  97.2774 277.6959 0001679  82.6785  78.5389 15.85222843  3191
STARLINK-36395          
1 67554U 26014Y   26034.50002314 -.01406769  00000+0 -66299-2 0  9998
2 67554  97.2769 277.7042 0001658  74.3497 105.6473 15.85876387  3199
STARLINK-36559          
1 67555U 26014Z   26034.50002314 -.01404603  00000+0 -66837-2 0  9992
2 67555  97.2772 277.7017 0001640  70.4727 103.8052 15.85674544  3194
